{
  "type": "FeatureCollection",
  "features": [
    {
      "type": "Feature",
      "properties": {
        "norad_id": 35052,
        "name": "IRIDIUM 33 DEB",
        "group": "iridium-33-debris",
        "lat": 26.922612339838363,
        "lon": -161.69321339289064,
        "alt_km": 759.21300342216,
        "timestamp": "2025-12-13T10:41:26.151244+00:00",
        "meta_object_name": "IRIDIUM 33 DEB",
        "meta_object_id": "1997-051NY",
        "meta_epoch": "2025-12-12T08:56:28.870368",
        "meta_mean_motion": 14.38491759,
        "meta_eccentricity": 0.00136796,
        "meta_inclination": 86.3311,
        "meta_ra_of_asc_node": 20.6338,
        "meta_arg_of_pericenter": 86.1311,
        "meta_mean_anomaly": 274.145,
        "meta_ephemeris_type": 0,
        "meta_classification_type": "U",
        "meta_norad_cat_id": 35052,
        "meta_element_set_no": 999,
        "meta_rev_at_epoch": 87270,
        "meta_bstar": 0.0002781126,
        "meta_mean_motion_dot": 8.7e-06,
        "meta_mean_motion_ddot": 0,
        "tle_line1": "1 35052U 97051NY  25346.37255637  .00000870  00000+0  27811-3 0  9991",
        "tle_line2": "2 35052  86.3311  20.6338 0013679  86.1311 274.1450 14.38491759872705"
      },
      "geometry": {
        "type": "Point",
        "coordinates": [
          -161.69321339289064,
          26.922612339838363
        ]
      }
    },
    {
      "type": "Feature",
      "properties": {
        "norad_id": 35080,
        "name": "IRIDIUM 33 DEB",
        "group": "iridium-33-debris",
        "lat": 85.56919847423421,
        "lon": 110.92813426201756,
        "alt_km": 601.9337765753462,
        "timestamp": "2025-12-13T10:41:26.151260+00:00",
        "meta_object_name": "IRIDIUM 33 DEB",
        "meta_object_id": "1997-051PF",
        "meta_epoch": "2025-12-12T03:35:19.907808",
        "meta_mean_motion": 14.85960238,
        "meta_eccentricity": 0.00604695,
        "meta_inclination": 86.207,
        "meta_ra_of_asc_node": 52.6577,
        "meta_arg_of_pericenter": 181.932,
        "meta_mean_anomaly": 178.1681,
        "meta_ephemeris_type": 0,
        "meta_classification_type": "U",
        "meta_norad_cat_id": 35080,
        "meta_element_set_no": 999,
        "meta_rev_at_epoch": 69679,
        "meta_bstar": 0.0091733841,
        "meta_mean_motion_dot": 0.00083628,
        "meta_mean_motion_ddot": 0,
        "tle_line1": "1 35080U 97051PF  25346.14953597  .00083628  00000+0  91734-2 0  9993",
        "tle_line2": "2 35080  86.2070  52.6577 0060469 181.9320 178.1681 14.85960238696797"
      },
      "geometry": {
        "type": "Point",
        "coordinates": [
          110.92813426201756,
          85.56919847423421
        ]
      }
    },
    {
      "type": "Feature",
      "properties": {
        "norad_id": 35297,
        "name": "IRIDIUM 33 DEB",
        "group": "iridium-33-debris",
        "lat": 75.9412397925552,
        "lon": 77.0780484019185,
        "alt_km": 728.3325334905066,
        "timestamp": "2025-12-13T10:41:26.151278+00:00",
        "meta_object_name": "IRIDIUM 33 DEB",
        "meta_object_id": "1997-051PM",
        "meta_epoch": "2025-12-12T22:42:20.538720",
        "meta_mean_motion": 14.45159336,
        "meta_eccentricity": 0.00177378,
        "meta_inclination": 86.3854,
        "meta_ra_of_asc_node": 62.6701,
        "meta_arg_of_pericenter": 139.4968,
        "meta_mean_anomaly": 220.7558,
        "meta_ephemeris_type": 0,
        "meta_classification_type": "U",
        "meta_norad_cat_id": 35297,
        "meta_element_set_no": 999,
        "meta_rev_at_epoch": 70429,
        "meta_bstar": 0.0010165954,
        "meta_mean_motion_dot": 3.583e-05,
        "meta_mean_motion_ddot": 0,
        "tle_line1": "1 35297U 97051PM  25346.94607105  .00003583  00000+0  10166-2 0  9994",
        "tle_line2": "2 35297  86.3854  62.6701 0017737 139.4968 220.7558 14.45159336704291"
      },
      "geometry": {
        "type": "Point",
        "coordinates": [
          77.0780484019185,
          75.9412397925552
        ]
      }
    },
    {
      "type": "Feature",
      "properties": {
        "norad_id": 35299,
        "name": "IRIDIUM 33 DEB",
        "group": "iridium-33-debris",
        "lat": -2.2328060171339343,
        "lon": 32.733999599225186,
        "alt_km": 767.5942022908657,
        "timestamp": "2025-12-13T10:41:26.151295+00:00",
        "meta_object_name": "IRIDIUM 33 DEB",
        "meta_object_id": "1997-051PP",
        "meta_epoch": "2025-12-12T09:58:22.179072",
        "meta_mean_motion": 14.40859086,
        "meta_eccentricity": 0.00589602,
        "meta_inclination": 86.2886,
        "meta_ra_of_asc_node": 33.3272,
        "meta_arg_of_pericenter": 103.4207,
        "meta_mean_anomaly": 316.2775,
        "meta_ephemeris_type": 0,
        "meta_classification_type": "U",
        "meta_norad_cat_id": 35299,
        "meta_element_set_no": 999,
        "meta_rev_at_epoch": 86326,
        "meta_bstar": 0.0012314468,
        "meta_mean_motion_dot": 4.048e-05,
        "meta_mean_motion_ddot": 0,
        "tle_line1": "1 35299U 97051PP  25346.41553448  .00004048  00000+0  12314-2 0  9992",
        "tle_line2": "2 35299  86.2886  33.3272 0058960 103.4207 316.2775 14.40859086863264"
      },
      "geometry": {
        "type": "Point",
        "coordinates": [
          32.733999599225186,
          -2.2328060171339343
        ]
      }
    },
    {
      "type": "Feature",
      "properties": {
        "norad_id": 35480,
        "name": "IRIDIUM 33 DEB",
        "group": "iridium-33-debris",
        "lat": 58.41513556355853,
        "lon": -161.3407507642913,
        "alt_km": 710.224736734177,
        "timestamp": "2025-12-13T10:41:26.151311+00:00",
        "meta_object_name": "IRIDIUM 33 DEB",
        "meta_object_id": "1997-051QA",
        "meta_epoch": "2025-12-09T19:59:43.135296",
        "meta_mean_motion": 14.49744632,
        "meta_eccentricity": 0.00159269,
        "meta_inclination": 86.357,
        "meta_ra_of_asc_node": 26.1722,
        "meta_arg_of_pericenter": 113.2937,
        "meta_mean_anomaly": 246.9945,
        "meta_ephemeris_type": 0,
        "meta_classification_type": "U",
        "meta_norad_cat_id": 35480,
        "meta_element_set_no": 999,
        "meta_rev_at_epoch": 86989,
        "meta_bstar": 0.0009193458,
        "meta_mean_motion_dot": 3.565e-05,
        "meta_mean_motion_ddot": 0,
        "tle_line1": "1 35480U 97051QA  25343.83313814  .00003565  00000+0  91935-3 0  9998",
        "tle_line2": "2 35480  86.3570  26.1722 0015926 113.2937 246.9945 14.49744632869893"
      },
      "geometry": {
        "type": "Point",
        "coordinates": [
          -161.3407507642913,
          58.41513556355853
        ]
      }
    },
    {
      "type": "Feature",
      "properties": {
        "norad_id": 35484,
        "name": "IRIDIUM 33 DEB",
        "group": "iridium-33-debris",
        "lat": 49.817837524725796,
        "lon": -3.263018418576183,
        "alt_km": 561.4314627045087,
        "timestamp": "2025-12-13T10:41:26.151327+00:00",
        "meta_object_name": "IRIDIUM 33 DEB",
        "meta_object_id": "1997-051QE",
        "meta_epoch": "2025-12-12T07:13:32.804832",
        "meta_mean_motion": 14.98607005,
        "meta_eccentricity": 0.0023596,
        "meta_inclination": 86.3611,
        "meta_ra_of_asc_node": 352.9505,
        "meta_arg_of_pericenter": 126.5148,
        "meta_mean_anomaly": 233.8262,
        "meta_ephemeris_type": 0,
        "meta_classification_type": "U",
        "meta_norad_cat_id": 35484,
        "meta_element_set_no": 999,
        "meta_rev_at_epoch": 62009,
        "meta_bstar": 0.0041273462,
        "meta_mean_motion_dot": 0.00050078,
        "meta_mean_motion_ddot": 0,
        "tle_line1": "1 35484U 97051QE  25346.30107413  .00050078  00000+0  41273-2 0  9993",
        "tle_line2": "2 35484  86.3611 352.9505 0023596 126.5148 233.8262 14.98607005620095"
      },
      "geometry": {
        "type": "Point",
        "coordinates": [
          -3.263018418576183,
          49.817837524725796
        ]
      }
    },
    {
      "type": "Feature",
      "properties": {
        "norad_id": 35488,
        "name": "IRIDIUM 33 DEB",
        "group": "iridium-33-debris",
        "lat": 59.35804487503625,
        "lon": 114.32433562446334,
        "alt_km": 610.2753103943924,
        "timestamp": "2025-12-13T10:41:26.151344+00:00",
        "meta_object_name": "IRIDIUM 33 DEB",
        "meta_object_id": "1997-051QJ",
        "meta_epoch": "2025-12-12T14:43:12.684864",
        "meta_mean_motion": 14.83053941,
        "meta_eccentricity": 0.00298615,
        "meta_inclination": 86.3248,
        "meta_ra_of_asc_node": 300.9369,
        "meta_arg_of_pericenter": 43.3071,
        "meta_mean_anomaly": 317.049,
        "meta_ephemeris_type": 0,
        "meta_classification_type": "U",
        "meta_norad_cat_id": 35488,
        "meta_element_set_no": 999,
        "meta_rev_at_epoch": 88264,
        "meta_bstar": 0.0023232859,
        "meta_mean_motion_dot": 0.00019104,
        "meta_mean_motion_ddot": 0,
        "tle_line1": "1 35488U 97051QJ  25346.61334126  .00019104  00000+0  23233-2 0  9995",
        "tle_line2": "2 35488  86.3248 300.9369 0029861  43.3071 317.0490 14.83053941882645"
      },
      "geometry": {
        "type": "Point",
        "coordinates": [
          114.32433562446334,
          59.35804487503625
        ]
      }
    }
  ]
}